[{"OBJECT_NAME":"STARLINK-31796","OBJECT_ID":"2024-082R","EPOCH":"2026-03-09T04:10:50.376288","MEAN_MOTION":15.27574893,"ECCENTRICITY":0.0001059,"INCLINATION":43.0021,"RA_OF_ASC_NODE":142.6731,"ARG_OF_PERICENTER":228.3655,"MEAN_ANOMALY":131.7106,"EPHEMERIS_TYPE":0,"CLASSIFICATION_TYPE":"U","NORAD_CAT_ID":59646,"ELEMENT_SET_NO":999,"REV_AT_EPOCH":10489,"BSTAR":-1.66762e-5,"MEAN_MOTION_DOT":-7.21e-6,"MEAN_MOTION_DDOT":0},{"OBJECT_NAME":"CZ-6A DEB","OBJECT_ID":"2022-151DV","EPOCH":"2026-03-09T19:16:59.107296","MEAN_MOTION":15.22406517,"ECCENTRICITY":0.00445255,"INCLINATION":98.4509,"RA_OF_ASC_NODE":160.1888,"ARG_OF_PERICENTER":355.6495,"MEAN_ANOMALY":4.4345,"EPHEMERIS_TYPE":0,"CLASSIFICATION_TYPE":"U","NORAD_CAT_ID":54397,"ELEMENT_SET_NO":999,"REV_AT_EPOCH":17880,"BSTAR":0.0035436228,"MEAN_MOTION_DOT":0.00084931,"MEAN_MOTION_DDOT":0}]
